0 SL-12 DEB *
1 21623U 87036L   13281.56490723  .00005324  00000-0  27051-2 0  7066
2 21623 062.7150 022.0518 3282646 058.4569 024.4728 08.45737931705964
0 SL-12 DEB *
1 21623U 87036L   13282.15059684  .00008792  00000-0  44526-2 0  7078
2 21623 062.7146 021.3952 3282574 058.4952 007.7053 08.45755173706019
0 SL-12 DEB *
1 21623U 87036L   13283.09460764  .00009343  00000-0  47407-2 0  7082
2 21623 062.7138 020.3363 3282208 058.5610 001.9905 08.45777990706092
0 SL-12 DEB *
1 21623U 87036L   13285.22879809  .00007484  00000-0  38112-2 0  7103
2 21623 062.7128 017.9474 3281776 058.6491 020.3218 08.45807242706279
0 SL-12 DEB *
1 21623U 87036L   13286.40667546  .00007213  00000-0  36752-2 0  7116
2 21623 062.7131 016.6288 3281651 058.7154 006.8886 08.45823209706373
0 SL-12 DEB *
1 21623U 87036L   13288.06002797  .00012650  00000-0  64447-2 0  7125
2 21623 062.7153 014.7857 3281251 058.8431 001.3355 08.45848351706515
0 SL-12 DEB *
1 21623U 87036L   13289.12589255  .00011064  00000-0  56405-2 0  7136
2 21623 062.7174 013.5926 3281083 058.9249 007.0069 08.45874974706608
0 SL-12 DEB *
1 21623U 87036L   13290.19335010  .00011500  00000-0  58528-2 0  7147
2 21623 062.7171 012.3991 3281178 058.9874 017.6114 08.45888614706696
0 SL-12 DEB *
1 21623U 87036L   13290.53212971  .00011039  00000-0  56163-2 0  7156
2 21623 062.7158 012.0032 3280770 058.9651 329.2939 08.45900197706726
0 SL-12 DEB *
1 21623U 87036L   13291.13684175  .00009869  00000-0  50147-2 0  7156
2 21623 062.7164 011.3421 3281310 059.0216 010.7826 08.45908675706778
0 SL-12 DEB *
1 21623U 87036L   13292.20311611  .00008846  00000-0  44898-2 0  7168
2 21623 062.7147 010.1485 3281414 059.0584 017.9248 08.45921514706863
0 SL-12 DEB *
1 21623U 87036L   13293.38190412  .00009219  00000-0  46843-2 0  7170
2 21623 062.7176 008.8377 3281173 059.1690 007.7358 08.45939137706960
0 SL-12 DEB *
1 21623U 87036L   13293.73855563  .00009158  00000-0  46483-2 0  7187
2 21623 062.7144 008.4303 3281269 059.1632 013.8931 08.45943153706993
0 SL-12 DEB *
1 21623U 87036L   13295.51572402  .00009949  00000-0  50664-2 0  7198
2 21623 062.7145 006.4440 3280746 059.2926 026.1629 08.45967716707140
